NORAD_CAT_ID,OBJECT_NAME,OBJECT_TYPE,EPOCH,MEAN_MOTION,ECCENTRICITY,INCLINATION,RA_OF_ASC_NODE,ARG_OF_PERICENTER,MEAN_ANOMALY,BSTAR,MEAN_MOTION_DOT,MEAN_MOTION_DDOT,TLE_LINE0,TLE_LINE1,TLE_LINE2,SEMIMAJOR_AXIS,PERIOD,APOGEE,PERIGEE,DECAYED
51126.0,STARLINK-3386,PAYLOAD,2023-09-08 01:01:04,15.08847317,0.0001317,53.2163,80.6528,81.0903,279.0238,5.593e-05,6.02e-06,0.0,0 STARLINK-3386,1 51126U 22005Y   23251.04241169  .00000602  00000-0  55930-4 0  9998,2 51126  53.2163  80.6528 0001317  81.0903 279.0238 15.08847317 91925,6917.858,95.437,540.634,538.812,0.0
51126.0,STARLINK-3386,PAYLOAD,2023-09-08 18:30:19,15.08837996,0.000135,53.2169,77.3832,77.3151,282.7992,4.5498e-05,4.36e-06,0.0,0 STARLINK-3386,1 51126U 22005Y   23251.77106014  .00000436  00000-0  45498-4 0  9990,2 51126  53.2169  77.3832 0001350  77.3151 282.7992 15.08837996 92035,6917.887,95.438,540.685,538.818,0.0
51126.0,STARLINK-3386,PAYLOAD,2023-09-08 20:05:42,15.08843887,0.0001269,53.2173,77.0855,84.9835,275.1302,9.0053e-05,1.146e-05,0.0,0 STARLINK-3386,1 51126U 22005Y   23251.83729514  .00001146  00000-0  90053-4 0  9999,2 51126  53.2173  77.0855 0001269  84.9835 275.1302 15.08843887 90938,6917.869,95.437,540.611,538.856,0.0
51126.0,STARLINK-3386,PAYLOAD,2023-09-09 00:51:51,15.08846057,0.0001343,53.2172,76.1925,82.5262,277.5883,0.00010871,1.443e-05,0.0,0 STARLINK-3386,1 51126U 22005Y   23252.03601312  .00001443  00000-0  10871-3 0  9996,2 51126  53.2172  76.1925 0001343  82.5262 277.5883 15.08846057 92075,6917.862,95.437,540.656,538.798,0.0
51126.0,STARLINK-3386,PAYLOAD,2023-09-09 05:38:01,15.08836965,6.81e-05,53.2172,75.3005,89.5836,270.5234,2.4228e-05,9.8e-07,0.0,0 STARLINK-3386,1 51126U 22005Y   23252.23473795  .00000098  00000-0  24228-4 0  9997,2 51126  53.2172  75.3005 0000681  89.5836 270.5234 15.08836965 92107,6917.89,95.438,540.226,539.284,0.0
51126.0,STARLINK-3386,PAYLOAD,2023-09-09 11:59:34,15.08836129,0.0001073,53.2164,74.1113,86.9264,273.185,2.4637e-05,1.04e-06,0.0,0 STARLINK-3386,1 51126U 22005Y   23252.49970126  .00000104  00000-0  24637-4 0  9997,2 51126  53.2164  74.1113 0001073  86.9264 273.1850 15.08836129 91033,6917.892,95.438,540.5,539.015,0.0
51126.0,STARLINK-3386,PAYLOAD,2023-09-09 18:21:06,15.08844486,0.0001389,53.2161,72.9214,84.8426,275.2725,9.3639e-05,1.203e-05,0.0,0 STARLINK-3386,1 51126U 22005Y   23252.76465514  .00001203  00000-0  93639-4 0  9996,2 51126  53.2161  72.9214 0001389  84.8426 275.2725 15.08844486 92181,6917.867,95.437,540.693,538.771,0.0
51126.0,STARLINK-3386,PAYLOAD,2023-09-10 11:50:20,15.08848471,0.0001945,53.2172,69.6521,70.4595,289.6607,-3.6404e-05,-8.68e-06,0.0,0 STARLINK-3386,1 51126U 22005Y   23253.49329560 -.00000868  00000-0 -36404-4 0  9992,2 51126  53.2172  69.6521 0001945  70.4595 289.6607 15.08848471 91188,6917.854,95.437,541.065,538.374,0.0
51126.0,STARLINK-3386,PAYLOAD,2023-09-10 22:58:02,15.08849752,0.0001332,53.218,67.5695,89.9158,270.1986,8.4296e-05,1.054e-05,0.0,0 STARLINK-3386,1 51126U 22005Y   23253.95697124  .00001054  00000-0  84296-4 0  9995,2 51126  53.2180  67.5695 0001332  89.9158 270.1986 15.08849752 92365,6917.851,95.437,540.637,538.794,0.0
51126.0,STARLINK-3386,PAYLOAD,2023-09-11 05:19:35,15.08835504,0.0001182,53.2187,66.3776,90.8892,269.2235,-3.0317e-05,-7.7e-06,0.0,0 STARLINK-3386,1 51126U 22005Y   23254.22194246 -.00000770  00000-0 -30317-4 0  9994,2 51126  53.2187  66.3776 0001182  90.8892 269.2235 15.08835504 92409,6917.894,95.438,540.577,538.941,0.0
51126.0,STARLINK-3386,PAYLOAD,2023-09-11 18:02:40,15.08842641,0.0001385,53.2182,64.0018,85.7351,274.38,5.0019e-05,5.08e-06,0.0,0 STARLINK-3386,1 51126U 22005Y   23254.75185811  .00000508  00000-0  50019-4 0  9998,2 51126  53.2182  64.0018 0001385  85.7351 274.3800 15.08842641 92489,6917.872,95.437,540.695,538.779,0.0
51126.0,STARLINK-3386,PAYLOAD,2023-09-11 22:48:49,15.08847994,0.0001384,53.2189,63.1097,85.0311,275.0839,9.4879e-05,1.223e-05,0.0,0 STARLINK-3386,1 51126U 22005Y   23254.95057348  .00001223  00000-0  94879-4 0  9990,2 51126  53.2189  63.1097 0001384  85.0311 275.0839 15.08847994 92511,6917.856,95.437,540.678,538.764,0.0
51126.0,STARLINK-3386,PAYLOAD,2023-09-12 11:31:55,15.08831207,0.0001218,53.2197,60.7282,92.735,267.3782,8.2924e-05,1.032e-05,0.0,0 STARLINK-3386,1 51126U 22005Y   23255.48050466  .00001032  00000-0  82924-4 0  9999,2 51126  53.2197  60.7282 0001218  92.7350 267.3782 15.08831207 91489,6917.907,95.438,540.615,538.93,0.0
51126.0,STARLINK-3386,PAYLOAD,2023-09-12 17:53:27,15.08843963,0.0001342,53.2184,59.5404,90.1837,269.9309,5.8214e-05,6.39e-06,0.0,0 STARLINK-3386,1 51126U 22005Y   23255.74545854  .00000639  00000-0  58214-4 0  9995,2 51126  53.2184  59.5404 0001342  90.1837 269.9309 15.08843963 92630,6917.868,95.437,540.662,538.805,0.0
51126.0,STARLINK-3386,PAYLOAD,2023-09-12 22:39:36,15.0885376,0.0001257,53.2185,58.648,85.6751,274.4384,0.00014689,2.051e-05,0.0,0 STARLINK-3386,1 51126U 22005Y   23255.94416968  .00002051  00000-0  14689-3 0  9997,2 51126  53.2185  58.6480 0001257  85.6751 274.4384 15.08853760 92667,6917.838,95.437,540.573,538.834,0.0
51126.0,STARLINK-3386,PAYLOAD,2023-09-13 17:44:14,15.08852329,0.0001308,53.218,55.0799,78.9793,281.1346,0.00018986,2.736e-05,0.0,0 STARLINK-3386,1 51126U 22005Y   23256.73905164  .00002736  00000-0  18986-3 0  9990,2 51126  53.2180  55.0799 0001308  78.9793 281.1346 15.08852329 92780,6917.843,95.437,540.613,538.803,0.0
51126.0,STARLINK-3386,PAYLOAD,2023-09-13 20:55:00,15.08856624,0.000131,53.218,54.4847,77.935,282.1789,0.00025303,3.743e-05,0.0,0 STARLINK-3386,1 51126U 22005Y   23256.87152898  .00003743  00000-0  25303-3 0  9993,2 51126  53.2180  54.4847 0001310  77.9350 282.1789 15.08856624 91691,6917.83,95.437,540.601,538.788,0.0
51126.0,STARLINK-3386,PAYLOAD,2023-09-13 22:30:23,15.08861898,0.0001321,53.2185,54.1868,78.3915,281.7225,0.00033998,5.13e-05,0.0,0 STARLINK-3386,1 51126U 22005Y   23256.93776626  .00005130  00000-0  33998-3 0  9992,2 51126  53.2185  54.1868 0001321  78.3915 281.7225 15.08861898 92814,6917.813,95.436,540.592,538.765,0.0
51126.0,STARLINK-3386,PAYLOAD,2023-09-14 17:35:02,15.08819869,0.0001094,53.2176,50.6175,85.4033,274.7084,-0.00033218,-5.568e-05,0.0,0 STARLINK-3386,1 51126U 22005Y   23257.73266746 -.00005568  00000-0 -33218-3 0  9990,2 51126  53.2176  50.6175 0001094  85.4033 274.7084 15.08819869 92932,6917.942,95.439,540.564,539.05,0.0
51126.0,STARLINK-3386,PAYLOAD,2023-09-15 03:07:21,15.08816812,0.0001106,53.2179,48.8338,95.2953,264.8165,-0.00028194,-4.769e-05,0.0,0 STARLINK-3386,1 51126U 22005Y   23258.13011415 -.00004769  00000-0 -28194-3 0  9995,2 51126  53.2179  48.8338 0001106  95.2953 264.8165 15.08816812 91887,6917.951,95.439,540.581,539.051,0.0
51126.0,STARLINK-3386,PAYLOAD,2023-09-15 17:25:50,15.08833877,0.0001035,53.2175,46.1575,93.1398,266.9712,1.2827e-05,-8.4e-07,0.0,0 STARLINK-3386,1 51126U 22005Y   23258.72627573 -.00000084  00000-0  12827-4 0  9990,2 51126  53.2175  46.1575 0001035  93.1398 266.9712 15.08833877 93083,6917.899,95.438,540.48,539.048,0.0
51126.0,STARLINK-3386,PAYLOAD,2023-09-16 14:05:50,15.08860521,9.94e-05,53.217,42.2923,106.9291,253.181,0.00095987,0.0001503,0.0,0 STARLINK-3386,1 51126U 22005Y   23259.58739565  .00015030  00000-0  95987-3 0  9993,2 51126  53.2170  42.2923 0000994 106.9291 253.1810 15.08860521 92105,6917.818,95.436,540.37,538.995,0.0
51126.0,STARLINK-3386,PAYLOAD,2023-09-16 17:16:36,15.08871786,9.64e-05,53.2169,41.6978,105.5863,254.5235,0.0011735,0.00018454,0.0,0 STARLINK-3386,1 51126U 22005Y   23259.71987244  .00018454  00000-0  11735-2 0  9998,2 51126  53.2169  41.6978 0000964 105.5863 254.5235 15.08871786 93239,6917.783,95.436,540.315,538.981,0.0
51126.0,STARLINK-3386,PAYLOAD,2023-09-16 22:02:45,15.08880102,9.34e-05,53.2166,40.8053,104.9804,255.1292,0.0011975,0.00018842,0.0,0 STARLINK-3386,1 51126U 22005Y   23259.91858736  .00018842  00000-0  11975-2 0  9990,2 51126  53.2166  40.8053 0000934 104.9804 255.1292 15.08880102 92158,6917.758,95.435,540.269,538.977,0.0
51126.0,STARLINK-3386,PAYLOAD,2023-09-17 15:32:00,15.08863471,0.0001166,53.2172,37.5353,51.5483,308.5613,0.0021644,0.00034349,0.0,0 STARLINK-3386,1 51126U 22005Y   23260.64722949  .00034349  00000-0  21644-2 0  9992,2 51126  53.2172  37.5353 0001166  51.5483 308.5613 15.08863471 93374,6917.809,95.436,540.48,538.867,0.0
51126.0,STARLINK-3386,PAYLOAD,2023-09-18 02:39:42,15.08827548,5.62e-05,53.2172,35.4529,124.7172,235.3873,0.00096739,0.00015136,0.0,0 STARLINK-3386,1 51126U 22005Y   23261.11090453  .00015136  00000-0  96739-3 0  9994,2 51126  53.2172  35.4529 0000562 124.7172 235.3873 15.08827548 93441,6917.918,95.438,540.172,539.395,0.0
51126.0,STARLINK-3386,PAYLOAD,2023-09-18 13:47:24,15.08848048,0.0001205,53.217,33.3715,91.0686,269.0444,0.001678,0.00026524,0.0,0 STARLINK-3386,1 51126U 22005Y   23261.57458922  .00026524  00000-0  16780-2 0  9993,2 51126  53.2170  33.3715 0001205  91.0686 269.0444 15.08848048 92405,6917.856,95.437,540.554,538.887,0.0
51126.0,STARLINK-3386,PAYLOAD,2023-09-18 20:08:56,15.0886307,0.0001162,53.2179,32.1825,85.6429,274.4696,0.002018,0.00031995,0.0,0 STARLINK-3386,1 51126U 22005Y   23261.83954660  .00031995  00000-0  20180-2 0  9999,2 51126  53.2179  32.1825 0001162  85.6429 274.4696 15.08863070 92444,6917.81,95.436,540.479,538.871,0.0
51126.0,STARLINK-3386,PAYLOAD,2023-09-19 08:52:01,15.08858616,0.0001047,53.2187,29.8028,99.0059,261.1052,0.0014012,0.00022094,0.0,0 STARLINK-3386,1 51126U 22005Y   23262.36946644  .00022094  00000-0  14012-2 0  9998,2 51126  53.2187  29.8028 0001047  99.0059 261.1052 15.08858616 93632,6917.823,95.436,540.413,538.964,0.0
51126.0,STARLINK-3386,PAYLOAD,2023-09-20 11:53:35,15.08819165,0.0001189,53.2182,24.7496,126.2693,233.8409,0.00076822,0.00011952,0.0,0 STARLINK-3386,1 51126U 22005Y   23263.49555239  .00011952  00000-0  76822-3 0  9998,2 51126  53.2182  24.7496 0001189 126.2693 233.8409 15.08819165 93801,6917.944,95.439,540.632,538.987,0.0
